{
  "type": "FeatureCollection",
  "features": [
    {
      "type": "Feature",
      "properties": {},
      "geometry": {
        "type": "LineString",
        "coordinates": [
          [
            2.3225915,
            41.5828283
          ],
          [
            2.3231343,
            41.5833793
          ],
          [
            2.3219194,
            41.5840463
          ],
          [
            2.322491,
            41.5864553
          ],
          [
            2.3231575,
            41.5891797
          ],
          [
            2.3241495,
            41.5889942
          ],
          [
            2.323452,
            41.5863394
          ],
          [
            2.324165,
            41.5862119
          ],
          [
            2.323762,
            41.5846815
          ],
          [
            2.324475,
            41.584183
          ],
          [
            2.323058,
            41.5825269
          ]
        ]
      }
    }
  ]
}