{
  "type": "Feature",
  "properties": {},
  "geometry": {
    "type": "LineString",
    "coordinates": [
      [
        2.3234951,
        41.5818883
      ],
      [
        2.3247576,
        41.5834834
      ],
      [
        2.324853,
        41.5836957
      ],
      [
        2.3251438,
        41.5849354
      ],
      [
        2.3253861,
        41.5862476
      ],
      [
        2.324947,
        41.5862531
      ],
      [
        2.3249015,
        41.5868141
      ],
      [
        2.3249898,
        41.5873762
      ],
      [
        2.3254114,
        41.5879036
      ],
      [
        2.3251061,
        41.5883168
      ],
      [
        2.3249244,
        41.5883385
      ],
      [
        2.3250916,
        41.5887898
      ],
      [
        2.3251715,
        41.5888115
      ],
      [
        2.3262182,
        41.5882298
      ],
      [
        2.3258839,
        41.5875502
      ],
      [
        2.3255204,
        41.586713
      ],
      [
        2.3262473,
        41.5865988
      ],
      [
        2.3268459,
        41.5864972
      ],
      [
        2.3263918,
        41.584949
      ],
      [
        2.3254307,
        41.5849332
      ]
    ]
  }
}