{
  "type": "Feature",
  "properties": {},
  "geometry": {
    "type": "LineString",
    "coordinates": [
      [
        2.324802,
        41.582488
      ],
      [
        2.3262916,
        41.5818474
      ],
      [
        2.3263129,
        41.5819159
      ],
      [
        2.3262255,
        41.5820617
      ],
      [
        2.3277944,
        41.5819855
      ],
      [
        2.3282485,
        41.581959
      ],
      [
        2.3284495,
        41.5819986
      ],
      [
        2.3287598,
        41.5822254
      ],
      [
        2.3289433,
        41.5823679
      ],
      [
        2.3291584,
        41.5824681
      ],
      [
        2.3293523,
        41.5824945
      ],
      [
        2.3295569,
        41.5825736
      ],
      [
        2.329712,
        41.5826554
      ],
      [
        2.3298354,
        41.582782
      ],
      [
        2.3299483,
        41.5829956
      ],
      [
        2.3300223,
        41.5831169
      ],
      [
        2.3290135,
        41.5834922
      ],
      [
        2.3284144,
        41.58366
      ],
      [
        2.3280781,
        41.5837487
      ],
      [
        2.3278154,
        41.583799
      ],
      [
        2.327171,
        41.5838254
      ],
      [
        2.3266557,
        41.5837671
      ],
      [
        2.3263501,
        41.5836826
      ],
      [
        2.3257076,
        41.5834343
      ],
      [
        2.3255778,
        41.5833934
      ],
      [
        2.3257827,
        41.583235
      ],
      [
        2.3264659,
        41.5831328
      ],
      [
        2.3270192,
        41.5830868
      ],
      [
        2.3275111,
        41.5831226
      ],
      [
        2.3279415,
        41.5830409
      ],
      [
        2.3287476,
        41.5828773
      ]
    ]
  }
}