{
  "type": "Feature",
  "properties": {},
  "geometry": {
    "type": "LineString",
    "coordinates": [
      [
        2.3261563,
        41.587088
      ],
      [
        2.3263333,
        41.5875569
      ],
      [
        2.3266391,
        41.5879578
      ],
      [
        2.3269018,
        41.587869
      ],
      [
        2.3270779,
        41.5878255
      ],
      [
        2.3274054,
        41.5884752
      ],
      [
        2.3274165,
        41.5885568
      ],
      [
        2.3278464,
        41.5885801
      ],
      [
        2.3282161,
        41.5886401
      ],
      [
        2.3283987,
        41.5883152
      ],
      [
        2.3299493,
        41.5889791
      ],
      [
        2.3302969,
        41.5890719
      ],
      [
        2.3307748,
        41.5891973
      ],
      [
        2.3309486,
        41.5891323
      ],
      [
        2.3310044,
        41.5889791
      ],
      [
        2.3308244,
        41.5888027
      ],
      [
        2.3302844,
        41.5884777
      ],
      [
        2.3297507,
        41.5881899
      ],
      [
        2.3290183,
        41.5878371
      ],
      [
        2.328528,
        41.5873915
      ],
      [
        2.3280625,
        41.58754
      ],
      [
        2.3276901,
        41.5871408
      ],
      [
        2.3275101,
        41.5868994
      ],
      [
        2.3270384,
        41.5867091
      ]
    ]
  }
}