{
  "type": "FeatureCollection",
  "features": [
    {
      "type": "Feature",
      "properties": {},
      "geometry": {
        "type": "LineString",
        "coordinates": [
          [
            -56.1527233,
            -34.915003
          ],
          [
            -56.152809,
            -34.9153028
          ],
          [
            -56.150898,
            -34.915716
          ],
          [
            -56.1489975,
            -34.9161462
          ],
          [
            -56.148476,
            -34.9144559
          ],
          [
            -56.1464607,
            -34.9123392
          ],
          [
            -56.1433412,
            -34.9096739
          ],
          [
            -56.1425544,
            -34.9093909
          ],
          [
            -56.1406494,
            -34.909606
          ],
          [
            -56.1372529,
            -34.9101225
          ],
          [
            -56.1354032,
            -34.9098508
          ],
          [
            -56.1342575,
            -34.9094773
          ],
          [
            -56.1337743,
            -34.9086622
          ],
          [
            -56.1332774,
            -34.9063642
          ],
          [
            -56.1324365,
            -34.9046755
          ],
          [
            -56.1313874,
            -34.9042113
          ],
          [
            -56.1307386,
            -34.904234
          ],
          [
            -56.1304902,
            -34.9032264
          ],
          [
            -56.1299242,
            -34.9005094
          ],
          [
            -56.1334166,
            -34.899966
          ],
          [
            -56.133596,
            -34.900883
          ],
          [
            -56.1341206,
            -34.9008151
          ],
          [
            -56.1345347,
            -34.8997848
          ],
          [
            -56.1379995,
            -34.9010641
          ],
          [
            -56.1408752,
            -34.9018815
          ],
          [
            -56.1435117,
            -34.9024815
          ],
          [
            -56.145955,
            -34.9028438
          ],
          [
            -56.1485915,
            -34.902991
          ],
          [
            -56.1533124,
            -34.9030929
          ],
          [
            -56.1561008,
            -34.9031608
          ],
          [
            -56.1537339,
            -34.9084826
          ],
          [
            -56.1534946,
            -34.9091429
          ],
          [
            -56.1521833,
            -34.9107164
          ],
          [
            -56.1534118,
            -34.9119276
          ],
          [
            -56.1536184,
            -34.9121932
          ],
          [
            -56.153577,
            -34.913178
          ],
          [
            -56.1534942,
            -34.9140609
          ],
          [
            -56.1534389,
            -34.9143552
          ],
          [
            -56.1541844,
            -34.9157588
          ]
        ]
      }
    }
  ]
}
